OBJECT_NAME,OBJECT_ID,EPOCH,MEAN_MOTION,ECCENTRICITY,INCLINATION,RA_OF_ASC_NODE,ARG_OF_PERICENTER,MEAN_ANOMALY,EPHEMERIS_TYPE,CLASSIFICATION_TYPE,NORAD_CAT_ID,ELEMENT_SET_NO,REV_AT_EPOCH,BSTAR,MEAN_MOTION_DOT,MEAN_MOTION_DDOT
STARLINK-37718,2026-117E,2026-06-25T04:48:17.633376,15.81712387,.0011118,53.1573,203.3339,218.4192,141.6041,0,U,69242,999,424,.25184262E-2,.551741E-2,0
STARLINK-37735,2026-117F,2026-06-25T06:19:21.893376,15.80941344,.00003075,53.1565,203.0178,65.5727,294.5328,0,U,69243,999,425,.12053425E-2,.244844E-2,0
STARLINK-37757,2026-117G,2026-06-25T06:00:02.000160,15.80698188,.00011664,53.1585,203.0806,100.9984,185.5821,0,U,69244,999,547,-.15772128E-1,-.262284E-1,0
STARLINK-37767,2026-117H,2026-06-25T06:00:02.000160,15.81285102,.00006512,53.1579,203.0343,77.4177,231.2827,0,U,69245,999,547,-.63520822E-2,-.1143075E-1,0
STARLINK-35759,2026-117J,2026-06-25T06:00:02.000160,15.81284073,.0001066,53.1578,203.0025,81.6564,242.2173,0,U,69246,999,552,-.6530761E-2,-.1171901E-1,0
STARLINK-37238,2026-117K,2026-06-25T06:00:02.000160,15.69771120,.00008193,53.1593,203.0584,88.3499,207.1632,0,U,69247,999,547,-.21395805E-1,-.2251593E-1,0
STARLINK-37412,2026-117L,2026-06-25T05:58:17.748192,15.80998342,.00009261,53.1567,202.9178,115.5997,244.5122,0,U,69248,999,425,.15869147E-2,.326529E-2,0
STARLINK-37398,2026-117M,2026-06-25T07:45:47.749248,15.75019889,.00003408,53.1579,202.6775,84.6646,275.4413,0,U,69249,999,426,-.89035702E-2,-.1198571E-1,0
STARLINK-37499,2026-117N,2026-06-25T06:00:02.000160,15.76091125,.00008437,53.1588,202.9459,86.3528,264.1295,0,U,69250,999,554,-.19224522E-1,-.2658395E-1,0
STARLINK-37489,2026-117P,2026-06-25T06:00:02.000160,15.72726795,.00005539,53.1589,202.9502,94.8481,254.0303,0,U,69251,999,554,-.1580618E-1,-.1890178E-1,0
STARLINK-37434,2026-117Q,2026-06-25T06:00:02.000160,15.62576306,.00013042,53.1598,203.1138,93.2611,174.9045,0,U,69252,999,547,-.32012548E-1,-.2531341E-1,0
STARLINK-37368,2026-117R,2026-06-25T06:00:02.000160,15.80895253,.00008152,53.1575,202.7483,129.9942,316.1332,0,U,69253,999,554,-.15096857E-1,-.2547401E-1,0
STARLINK-37517,2026-117S,2026-06-24T19:00:52.216128,15.80990966,.00013417,53.1564,205.0391,67.4348,292.6817,0,U,69254,999,418,.12889624E-2,.263028E-2,0
STARLINK-37378,2026-117T,2026-06-25T05:35:41.631936,15.82031149,.00023844,53.1561,202.8108,227.5200,132.5622,0,U,69255,999,425,.16923221E-2,.367061E-2,0
STARLINK-37396,2026-117U,2026-06-25T07:03:11.922336,15.81211391,.00085661,53.1567,202.4758,349.6778,10.4068,0,U,69256,999,426,-.17981685E-2,-.348359E-2,0
STARLINK-37508,2026-117V,2026-06-25T06:00:02.000160,15.80908408,.00005135,53.1568,202.7880,58.3681,7.3107,0,U,69257,999,547,-.33140637E-3,-.65714E-3,0
STARLINK-37276,2026-117W,2026-06-25T06:00:02.000160,15.58414663,.0000819,53.1594,202.8052,73.6358,341.1135,0,U,69258,999,547,-.37227414E-1,-.2507437E-1,0
STARLINK-37518,2026-117X,2026-06-25T06:00:02.000160,15.58485344,.00007869,53.1597,202.8204,76.5416,330.6816,0,U,69259,999,548,-.36860104E-1,-.2491807E-1,0
STARLINK-37478,2026-117Y,2026-06-25T06:00:02.000160,15.49299187,.00021782,53.1599,203.3195,79.3061,82.2657,0,U,69260,999,548,.38622074E-3,.21083E-3,0
STARLINK-37506,2026-117Z,2026-06-25T06:00:02.000160,15.54719803,.00009582,53.1594,202.9245,91.1274,265.3918,0,U,69261,999,548,-.43728352E-1,-.2609188E-1,0
STARLINK-37503,2026-117AA,2026-06-25T06:00:02.000160,15.62440883,.00011484,53.1592,202.6978,60.0849,46.8982,0,U,69262,999,548,-.33225673E-1,-.2601678E-1,0
STARLINK-37502,2026-117AB,2026-06-25T06:00:02.000160,15.57199854,.00008645,53.1593,202.8366,79.9076,318.7690,0,U,69263,999,548,-.39522956E-1,-.2589906E-1,0
STARLINK-37486,2026-117AC,2026-06-25T06:00:02.000160,15.63454196,.000133,53.1590,202.6853,72.3937,40.5196,0,U,69264,999,548,-.88581764E-2,-.760332E-2,0
STARLINK-37435,2026-117AD,2026-06-23T19:43:07.095360,15.79009549,.00037564,53.1569,209.6360,20.7271,339.3902,0,U,69265,999,403,-.20733796E-2,-.361406E-2,0
STARLINK-37464,2026-117AE,2026-06-25T00:26:21.685920,15.73802935,.00042307,53.1599,203.5858,353.4682,6.6282,0,U,69266,999,422,.55166394E-3,.79617E-3,0
KUIPER-00282,2026-118A,2026-06-24T23:22:15.460320,15.34091339,.00134363,51.8543,16.0895,216.1139,143.8939,0,U,69267,999,517,.76991344E-3,.25561E-3,0
KUIPER-00383,2026-118B,2026-06-25T06:00:02.000160,15.34273061,.00108034,51.8597,14.7159,215.0804,251.6801,0,U,69268,999,465,-.14270941E-3,-.5197E-4,0
KUIPER-00527,2026-118C,2026-06-24T23:07:09.289344,15.34836208,.00095779,51.8641,16.0252,206.2149,153.8352,0,U,69269,999,517,.1298169E-2,.44458E-3,0
KUIPER-00562,2026-118D,2026-06-24T23:23:58.453440,15.38832476,.0001261,51.8737,15.3752,144.3803,215.7269,0,U,69270,999,518,.92043526E-3,.35684E-3,0
KUIPER-00570,2026-118E,2026-06-23T03:25:50.427264,15.35254459,.00090509,51.8587,24.8191,241.2053,118.8024,0,U,69271,999,489,.13187335E-1,.489113E-2,0
