[{"id":"69242","name":"STARLINK-37718","tle1":"1 69242U 26117E   26176.20020409  .00551741  00000+0  25184-2 0  9993","tle2":"2 69242  53.1573 203.3339 0011118 218.4192 141.6041 15.81712387  4241"},{"id":"69243","name":"STARLINK-37735","tle1":"1 69243U 26117F   26176.26344784  .00244844  00000+0  12053-2 0  9999","tle2":"2 69243  53.1565 203.0178 0000307  65.5727 294.5328 15.80941344  4257"},{"id":"69244","name":"STARLINK-37757","tle1":"1 69244U 26117G   26176.25002315 -.02622840  00000+0 -15772-1 0  9990","tle2":"2 69244  53.1585 203.0806 0001166 100.9984 185.5821 15.80698188  5478"},{"id":"69245","name":"STARLINK-37767","tle1":"1 69245U 26117H   26176.25002315 -.01143075  00000+0 -63521-2 0  9994","tle2":"2 69245  53.1579 203.0343 0000651  77.4177 231.2827 15.81285102  5472"},{"id":"69246","name":"STARLINK-35759","tle1":"1 69246U 26117J   26176.25002315 -.01171901  00000+0 -65308-2 0  9999","tle2":"2 69246  53.1578 203.0025 0001066  81.6564 242.2173 15.81284073  5525"},{"id":"69247","name":"STARLINK-37238","tle1":"1 69247U 26117K   26176.25002315 -.02251593  00000+0 -21396-1 0  9995","tle2":"2 69247  53.1593 203.0584 0000819  88.3499 207.1632 15.69771120  5473"},{"id":"69248","name":"STARLINK-37412","tle1":"1 69248U 26117L   26176.24881653  .00326529  00000+0  15869-2 0  9992","tle2":"2 69248  53.1567 202.9178 0000926 115.5997 244.5122 15.80998342  4251"},{"id":"69249","name":"STARLINK-37398","tle1":"1 69249U 26117M   26176.32346932 -.01198571  00000+0 -89036-2 0  9992","tle2":"2 69249  53.1579 202.6775 0000340  84.6646 275.4413 15.75019889  4263"},{"id":"69250","name":"STARLINK-37499","tle1":"1 69250U 26117N   26176.25002315 -.02658395  00000+0 -19225-1 0  9998","tle2":"2 69250  53.1588 202.9459 0000843  86.3528 264.1295 15.76091125  5542"},{"id":"69251","name":"STARLINK-37489","tle1":"1 69251U 26117P   26176.25002315 -.01890178  00000+0 -15806-1 0  9996","tle2":"2 69251  53.1589 202.9502 0000553  94.8481 254.0303 15.72726795  5545"},{"id":"69252","name":"STARLINK-37434","tle1":"1 69252U 26117Q   26176.25002315 -.02531341  00000+0 -32013-1 0  9991","tle2":"2 69252  53.1598 203.1138 0001304  93.2611 174.9045 15.62576306  5472"},{"id":"69253","name":"STARLINK-37368","tle1":"1 69253U 26117R   26176.25002315 -.02547401  00000+0 -15097-1 0  9999","tle2":"2 69253  53.1575 202.7483 0000815 129.9942 316.1332 15.80895253  5548"},{"id":"69254","name":"STARLINK-37517","tle1":"1 69254U 26117S   26175.79227102  .00263028  00000+0  12890-2 0  9996","tle2":"2 69254  53.1564 205.0391 0001341  67.4348 292.6817 15.80990966  4184"},{"id":"69255","name":"STARLINK-37378","tle1":"1 69255U 26117T   26176.23312074  .00367061  00000+0  16923-2 0  9993","tle2":"2 69255  53.1561 202.8108 0002384 227.5200 132.5622 15.82031149  4252"},{"id":"69256","name":"STARLINK-37396","tle1":"1 69256U 26117U   26176.29388799 -.00348359  00000+0 -17982-2 0  9994","tle2":"2 69256  53.1567 202.4758 0008566 349.6778  10.4068 15.81211391  4267"},{"id":"69257","name":"STARLINK-37508","tle1":"1 69257U 26117V   26176.25002315 -.00065714  00000+0 -33141-3 0  9995","tle2":"2 69257  53.1568 202.7880 0000513  58.3681   7.3107 15.80908408  5473"},{"id":"69258","name":"STARLINK-37276","tle1":"1 69258U 26117W   26176.25002315 -.02507437  00000+0 -37227-1 0  9998","tle2":"2 69258  53.1594 202.8052 0000819  73.6358 341.1135 15.58414663  5475"},{"id":"69259","name":"STARLINK-37518","tle1":"1 69259U 26117X   26176.25002315 -.02491807  00000+0 -36860-1 0  9994","tle2":"2 69259  53.1597 202.8204 0000786  76.5416 330.6816 15.58485344  5482"},{"id":"69260","name":"STARLINK-37478","tle1":"1 69260U 26117Y   26176.25002315  .00021083  00000+0  38622-3 0  9997","tle2":"2 69260  53.1599 203.3195 0002178  79.3061  82.2657 15.49299187  5486"},{"id":"69261","name":"STARLINK-37506","tle1":"1 69261U 26117Z   26176.25002315 -.02609188  00000+0 -43728-1 0  9991","tle2":"2 69261  53.1594 202.9245 0000958  91.1274 265.3918 15.54719803  5487"},{"id":"69262","name":"STARLINK-37503","tle1":"1 69262U 26117AA  26176.25002315 -.02601678  00000+0 -33226-1 0  9990","tle2":"2 69262  53.1592 202.6978 0001148  60.0849  46.8982 15.62440883  5482"},{"id":"69263","name":"STARLINK-37502","tle1":"1 69263U 26117AB  26176.25002315 -.02589906  00000+0 -39523-1 0  9996","tle2":"2 69263  53.1593 202.8366 0000864  79.9076 318.7690 15.57199854  5482"},{"id":"69264","name":"STARLINK-37486","tle1":"1 69264U 26117AC  26176.25002315 -.00760332  00000+0 -88582-2 0  9999","tle2":"2 69264  53.1590 202.6853 0001330  72.3937  40.5196 15.63454196  5482"},{"id":"69265","name":"STARLINK-37435","tle1":"1 69265U 26117AD  26174.82160990 -.00361406  00000+0 -20734-2 0  9999","tle2":"2 69265  53.1569 209.6360 0003756  20.7271 339.3902 15.79009549  4030"},{"id":"69266","name":"STARLINK-37464","tle1":"1 69266U 26117AE  26176.01830655  .00079617  00000+0  55166-3 0  9991","tle2":"2 69266  53.1599 203.5858 0004230 353.4682   6.6282 15.73802935  4229"},{"id":"69267","name":"KUIPER-00282","tle1":"1 69267U 26118A   26175.97379005  .00025561  00000+0  76991-3 0  9992","tle2":"2 69267  51.8543  16.0895 0013436 216.1139 143.8939 15.34091339  5175"},{"id":"69268","name":"KUIPER-00383","tle1":"1 69268U 26118B   26176.25002315 -.00005197  00000+0 -14271-3 0  9990","tle2":"2 69268  51.8597  14.7159 0010803 215.0804 251.6801 15.34273061  4657"},{"id":"69269","name":"KUIPER-00527","tle1":"1 69269U 26118C   26175.96330196  .00044458  00000+0  12982-2 0  9996","tle2":"2 69269  51.8641  16.0252 0009577 206.2149 153.8352 15.34836208  5177"},{"id":"69270","name":"KUIPER-00562","tle1":"1 69270U 26118D   26175.97498210  .00035684  00000+0  92044-3 0  9990","tle2":"2 69270  51.8737  15.3752 0001261 144.3803 215.7269 15.38832476  5186"},{"id":"69271","name":"KUIPER-00570","tle1":"1 69271U 26118E   26174.14294476  .00489113  00000+0  13187-1 0  9996","tle2":"2 69271  51.8587  24.8191 0009050 241.2053 118.8024 15.35254459  4895"}]